STARLINK-1764
1 46343U 20062U   26092.83335647  .00236231  00000+0  16704-2 0  9994
2 46343  53.0408 197.7836 0006613   3.3316 244.7638 15.72755131  5944
